OBJECT_NAME,OBJECT_ID,EPOCH,MEAN_MOTION,ECCENTRICITY,INCLINATION,RA_OF_ASC_NODE,ARG_OF_PERICENTER,MEAN_ANOMALY,EPHEMERIS_TYPE,CLASSIFICATION_TYPE,NORAD_CAT_ID,ELEMENT_SET_NO,REV_AT_EPOCH,BSTAR,MEAN_MOTION_DOT,MEAN_MOTION_DDOT
STARLINK-37649,2026-114W,2026-06-04T22:00:05.000256,15.83418368,.00006575,53.1583,263.5807,59.3003,289.8527,0,U,69202,999,283,-.92866876E-2,-.1816369E-1,0
STARLINK-37604,2026-114X,2026-06-04T22:00:05.000256,15.83544728,.00007111,53.1582,263.5724,73.4032,279.7288,0,U,69203,999,283,-.92394167E-2,-.1817937E-1,0
STARLINK-37669,2026-114Y,2026-06-04T22:00:05.000256,15.83659252,.0000584,53.1581,263.5640,65.0841,292.0441,0,U,69204,999,283,-.92100014E-2,-.1821519E-1,0
STARLINK-37691,2026-114Z,2026-06-04T22:00:05.000256,15.84034585,.00007118,53.1580,263.5391,70.9447,298.0441,0,U,69205,999,283,-.91694193E-2,-.1843554E-1,0
STARLINK-37671,2026-114AA,2026-06-04T22:00:05.000256,15.83914679,.00007496,53.1580,263.5473,68.5940,296.4420,0,U,69206,999,283,-.91885695E-2,-.1837631E-1,0
STARLINK-37647,2026-114AB,2026-06-04T22:00:05.000256,15.83768238,.00007155,53.1580,263.5556,63.0680,298.0830,0,U,69207,999,283,-.92473906E-2,-.1836527E-1,0
STARLINK-37562,2026-114AC,2026-06-04T22:00:05.000256,15.84155288,.00006872,53.1581,263.5307,68.0390,304.8940,0,U,69208,999,283,-.91633844E-2,-.1851892E-1,0
STARLINK-37682,2026-114AD,2026-06-04T22:00:05.000256,15.84282950,.00007638,53.1580,263.5226,59.1702,317.6601,0,U,69209,999,283,-.91187582E-2,-.1854048E-1,0
STARLINK-37402,2026-114AE,2026-06-04T22:00:05.000256,15.84427432,.00006986,53.1576,263.5148,57.2852,323.3570,0,U,69210,999,283,-.9032658E-2,-.1849948E-1,0
STARLINK-37613,2026-115A,2026-06-04T22:00:05.000256,15.80816815,.00012637,97.2833,172.6934,85.2248,65.9125,0,U,69211,999,272,.14497765E-3,.27717E-3,0
STARLINK-37713,2026-115B,2026-06-04T22:00:05.000256,15.80760543,.00014916,97.2827,172.6930,82.9107,69.8932,0,U,69212,999,272,.45531638E-3,.87733E-3,0
STARLINK-37716,2026-115C,2026-06-04T22:00:05.000256,15.80773154,.00014521,97.2831,172.6912,88.7047,59.8177,0,U,69213,999,272,.3291446E-3,.6324E-3,0
STARLINK-37620,2026-115D,2026-06-04T22:00:05.000256,15.80775898,.00011177,97.2829,172.6949,95.2852,61.7863,0,U,69214,999,272,.29168475E-3,.55985E-3,0
STARLINK-37700,2026-115E,2026-06-04T22:00:05.000256,15.75423278,.00017603,97.2844,172.6930,74.4590,77.1265,0,U,69215,999,272,-.18320155E-1,-.2381406E-1,0
STARLINK-37766,2026-115F,2026-06-04T22:00:05.000256,15.80758480,.00015819,97.2828,172.6990,93.5146,72.1080,0,U,69216,999,272,.64319539E-3,.124507E-2,0
STARLINK-37763,2026-115G,2026-06-04T22:00:05.000256,15.80867044,.00009456,97.2826,172.6999,78.3971,90.8176,0,U,69217,999,272,.13423053E-3,.25705E-3,0
STARLINK-37724,2026-115H,2026-06-04T22:00:05.000256,15.80773230,.00013968,97.2830,172.7021,93.4689,80.5190,0,U,69218,999,272,.2528935E-3,.48474E-3,0
STARLINK-37758,2026-115J,2026-06-04T22:00:05.000256,15.80736092,.00009775,97.2829,172.7117,93.0794,99.1624,0,U,69219,999,272,.86899605E-3,.168956E-2,0
STARLINK-37201,2026-115K,2026-06-04T22:00:05.000256,15.80776222,.00014796,97.2833,172.7080,101.1156,84.0994,0,U,69220,999,272,.49042386E-3,.94651E-3,0
STARLINK-37728,2026-115L,2026-06-04T22:00:05.000256,15.80744061,.00012683,97.2834,172.7148,83.8086,115.1684,0,U,69221,999,272,.69786801E-3,.135178E-2,0
STARLINK-37760,2026-115M,2026-06-04T22:00:05.000256,15.80743591,.00013851,97.2833,172.7083,89.6100,93.7720,0,U,69222,999,272,.67694526E-3,.131057E-2,0
STARLINK-37759,2026-115N,2026-06-04T22:00:05.000256,15.80755161,.00009355,97.2828,172.7160,84.4076,118.6450,0,U,69223,999,272,.62800506E-3,.1215E-2,0
STARLINK-37725,2026-115P,2026-06-04T22:00:05.000256,15.80770728,.00009957,97.2835,172.7147,85.8019,114.0051,0,U,69224,999,272,.49321819E-3,.95171E-3,0
STARLINK-37770,2026-115Q,2026-06-04T22:00:05.000256,15.80740451,.00014023,97.2834,172.7128,83.3754,113.0187,0,U,69225,999,272,.73301857E-3,.142084E-2,0
STARLINK-37736,2026-115R,2026-06-04T22:00:05.000256,15.80747216,.00007578,97.2832,172.7154,91.6526,108.7932,0,U,69226,999,272,.69664824E-3,.134956E-2,0
STARLINK-37737,2026-115S,2026-06-04T22:00:05.000256,15.80730776,.00013754,97.2829,172.7197,82.4325,129.3625,0,U,69227,999,274,.88001967E-3,.171103E-2,0
STARLINK-37618,2026-115T,2026-06-04T22:00:05.000256,15.80783670,.00013849,97.2834,172.7275,89.7552,142.7695,0,U,69228,999,272,.4168116E-3,.80317E-3,0
STARLINK-37679,2026-115U,2026-06-04T22:00:05.000256,15.80795440,.00011436,97.2830,172.7236,87.7029,136.4274,0,U,69229,999,272,.23848473E-3,.45735E-3,0
STARLINK-37746,2026-115V,2026-06-04T22:00:05.000256,15.80793313,.00010099,97.2830,172.7196,88.0034,127.4059,0,U,69230,999,272,.13581933E-3,.25924E-3,0
STARLINK-37557,2026-115W,2026-06-04T22:00:05.000256,15.80778349,.0001223,97.2835,172.7284,87.7131,145.8849,0,U,69231,999,272,.47934003E-3,.92493E-3,0
