STARLINK-37649          
1 69202U 26114W   26155.91672454 -.01816369  00000+0 -92867-2 0  9999
2 69202  53.1583 263.5807 0000657  59.3003 289.8527 15.83418368  2836
STARLINK-37604          
1 69203U 26114X   26155.91672454 -.01817937  00000+0 -92394-2 0  9997
2 69203  53.1582 263.5724 0000711  73.4032 279.7288 15.83544728  2836
STARLINK-37669          
1 69204U 26114Y   26155.91672454 -.01821519  00000+0 -92100-2 0  9994
2 69204  53.1581 263.5640 0000584  65.0841 292.0441 15.83659252  2834
STARLINK-37691          
1 69205U 26114Z   26155.91672454 -.01843554  00000+0 -91694-2 0  9995
2 69205  53.1580 263.5391 0000711  70.9447 298.0441 15.84034585  2839
STARLINK-37671          
1 69206U 26114AA  26155.91672454 -.01837631  00000+0 -91886-2 0  9998
2 69206  53.1580 263.5473 0000749  68.5940 296.4420 15.83914679  2832
STARLINK-37647          
1 69207U 26114AB  26155.91672454 -.01836527  00000+0 -92474-2 0  9996
2 69207  53.1580 263.5556 0000715  63.0680 298.0830 15.83768238  2830
STARLINK-37562          
1 69208U 26114AC  26155.91672454 -.01851892  00000+0 -91634-2 0  9996
2 69208  53.1581 263.5307 0000687  68.0390 304.8940 15.84155288  2831
STARLINK-37682          
1 69209U 26114AD  26155.91672454 -.01854048  00000+0 -91188-2 0  9997
2 69209  53.1580 263.5226 0000763  59.1702 317.6601 15.84282950  2837
STARLINK-37402          
1 69210U 26114AE  26155.91672454 -.01849948  00000+0 -90327-2 0  9996
2 69210  53.1576 263.5148 0000698  57.2852 323.3570 15.84427432  2834
STARLINK-37613          
1 69211U 26115A   26155.91672454  .00027717  00000+0  14498-3 0  9993
2 69211  97.2833 172.6934 0001263  85.2248  65.9125 15.80816815  2728
STARLINK-37713          
1 69212U 26115B   26155.91672454  .00087733  00000+0  45532-3 0  9991
2 69212  97.2827 172.6930 0001491  82.9107  69.8932 15.80760543  2724
STARLINK-37716          
1 69213U 26115C   26155.91672454  .00063240  00000+0  32914-3 0  9999
2 69213  97.2831 172.6912 0001452  88.7047  59.8177 15.80773154  2726
STARLINK-37620          
1 69214U 26115D   26155.91672454  .00055985  00000+0  29168-3 0  9994
2 69214  97.2829 172.6949 0001117  95.2852  61.7863 15.80775898  2720
STARLINK-37700          
1 69215U 26115E   26155.91672454 -.02381406  00000+0 -18320-1 0  9995
2 69215  97.2844 172.6930 0001760  74.4590  77.1265 15.75423278  2723
STARLINK-37766          
1 69216U 26115F   26155.91672454  .00124507  00000+0  64320-3 0  9992
2 69216  97.2828 172.6990 0001581  93.5146  72.1080 15.80758480  2724
STARLINK-37763          
1 69217U 26115G   26155.91672454  .00025705  00000+0  13423-3 0  9991
2 69217  97.2826 172.6999 0000945  78.3971  90.8176 15.80867044  2722
STARLINK-37724          
1 69218U 26115H   26155.91672454  .00048474  00000+0  25289-3 0  9993
2 69218  97.2830 172.7021 0001396  93.4689  80.5190 15.80773230  2725
STARLINK-37758          
1 69219U 26115J   26155.91672454  .00168956  00000+0  86900-3 0  9999
2 69219  97.2829 172.7117 0000977  93.0794  99.1624 15.80736092  2720
STARLINK-37201          
1 69220U 26115K   26155.91672454  .00094651  00000+0  49042-3 0  9997
2 69220  97.2833 172.7080 0001479 101.1156  84.0994 15.80776222  2729
STARLINK-37728          
1 69221U 26115L   26155.91672454  .00135178  00000+0  69787-3 0  9996
2 69221  97.2834 172.7148 0001268  83.8086 115.1684 15.80744061  2728
STARLINK-37760          
1 69222U 26115M   26155.91672454  .00131057  00000+0  67695-3 0  9995
2 69222  97.2833 172.7083 0001385  89.6100  93.7720 15.80743591  2726
STARLINK-37759          
1 69223U 26115N   26155.91672454  .00121500  00000+0  62801-3 0  9992
2 69223  97.2828 172.7160 0000935  84.4076 118.6450 15.80755161  2725
STARLINK-37725          
1 69224U 26115P   26155.91672454  .00095171  00000+0  49322-3 0  9990
2 69224  97.2835 172.7147 0000995  85.8019 114.0051 15.80770728  2720
STARLINK-37770          
1 69225U 26115Q   26155.91672454  .00142084  00000+0  73302-3 0  9992
2 69225  97.2834 172.7128 0001402  83.3754 113.0187 15.80740451  2721
STARLINK-37736          
1 69226U 26115R   26155.91672454  .00134956  00000+0  69665-3 0  9999
2 69226  97.2832 172.7154 0000757  91.6526 108.7932 15.80747216  2725
STARLINK-37737          
1 69227U 26115S   26155.91672454  .00171103  00000+0  88002-3 0  9991
2 69227  97.2829 172.7197 0001375  82.4325 129.3625 15.80730776  2744
STARLINK-37618          
1 69228U 26115T   26155.91672454  .00080317  00000+0  41681-3 0  9990
2 69228  97.2834 172.7275 0001384  89.7552 142.7695 15.80783670  2725
STARLINK-37679          
1 69229U 26115U   26155.91672454  .00045735  00000+0  23848-3 0  9991
2 69229  97.2830 172.7236 0001143  87.7029 136.4274 15.80795440  2720
STARLINK-37746          
1 69230U 26115V   26155.91672454  .00025924  00000+0  13582-3 0  9995
2 69230  97.2830 172.7196 0001009  88.0034 127.4059 15.80793313  2726
STARLINK-37557          
1 69231U 26115W   26155.91672454  .00092493  00000+0  47934-3 0  9999
2 69231  97.2835 172.7284 0001223  87.7131 145.8849 15.80778349  2725
